[Satellite]
VERSION=1.1
NAME=SUZAKU (ASTRO-EII)
NICKNAME=SUZAKU (ASTRO-EII)
TLE1=1 28773U 05025A   20157.51139912  .00000653  00000-0  27446-4 0  9996
TLE2=2 28773  31.3822  94.3163 0004349  88.3694 271.7451 15.17558657822124
STATUS=0
